EUTELSAT 7A             
1 28187U 04008A   25198.51732537  .00000107  00000+0  00000+0 0  9992
2 28187   4.9758  76.0304 0001544  70.6130 195.9473  1.00271958 77995
EUTELSAT 174A           
1 28924U 05052A   25198.58083590  .00000014  00000+0  00000+0 0  9993
2 28924   3.3674  80.7242 0006052  38.7303 199.2408  1.00271210 48975
EUTELSAT HOTBIRD 13E    
1 28946U 06007B   25198.55915918 -.00000139  00000+0  00000+0 0  9992
2 28946   1.2038  89.6847 0006072 185.3857 230.8312  0.98117938 70966
EUTELSAT HOTBIRD 13B    
1 29270U 06032A   25198.56392587  .00000162  00000+0  00000+0 0  9998
2 29270   0.7934  86.0041 0003660  33.4405  52.2709  1.00271799 43950
EUTELSAT HOTBIRD 13C    
1 33459U 08065A   25198.34073473 -.00000094  00000+0  00000+0 0  9991
2 33459   2.0855  83.2252 0003242  39.3512 282.9711  1.00271515 43988
EUTELSAT 36B            
1 36101U 09065A   25198.56739255  .00000119  00000+0  00000+0 0  9997
2 36101   0.0547 339.2873 0005500 139.3455  71.7549  1.00272919 57358
EUTELSAT KA-SAT 9A      
1 37258U 10069A   25198.55907251  .00000069  00000+0  00000+0 0  9993
2 37258   0.0624 303.1247 0003713 189.2131  13.5363  1.00271080 40653
EUTELSAT 7 WEST A       
1 37816U 11051A   25198.40928727 -.00000053  00000+0  00000+0 0  9994
2 37816   0.0646 338.6585 0004703 156.3677 300.4729  1.00270723 50541
